{"fetched_at":"2026-07-12T05:52:52.789Z","source":"https://celestrak.org/NORAD/elements/gp.php?NAME=FIREFLY&FORMAT=JSON","constellation":"pixxel","records":[{"OBJECT_NAME":"FIREFLY-1","OBJECT_ID":"2025-009CW","EPOCH":"2026-07-11T19:53:05.950176","CLASSIFICATION_TYPE":"U","MEAN_MOTION":14.92736138,"ECCENTRICITY":0.0002399,"INCLINATION":97.7062,"RA_OF_ASC_NODE":270.4477,"ARG_OF_PERICENTER":239.4007,"MEAN_ANOMALY":120.6976,"EPHEMERIS_TYPE":0,"NORAD_CAT_ID":62701,"ELEMENT_SET_NO":999,"REV_AT_EPOCH":8099,"BSTAR":0.00009314,"MEAN_MOTION_DOT":0.00000906,"MEAN_MOTION_DDOT":0},{"OBJECT_NAME":"FIREFLY-2","OBJECT_ID":"2025-009CZ","EPOCH":"2026-07-11T19:21:15.907104","CLASSIFICATION_TYPE":"U","MEAN_MOTION":14.92730875,"ECCENTRICITY":0.0006701,"INCLINATION":97.7019,"RA_OF_ASC_NODE":270.1977,"ARG_OF_PERICENTER":14.2796,"MEAN_ANOMALY":345.8612,"EPHEMERIS_TYPE":0,"NORAD_CAT_ID":62704,"ELEMENT_SET_NO":999,"REV_AT_EPOCH":8099,"BSTAR":0.000052836,"MEAN_MOTION_DOT":0.0000049,"MEAN_MOTION_DDOT":0},{"OBJECT_NAME":"FIREFLY-3","OBJECT_ID":"2025-009DF","EPOCH":"2026-07-11T18:49:57.745632","CLASSIFICATION_TYPE":"U","MEAN_MOTION":14.92796196,"ECCENTRICITY":0.0004834,"INCLINATION":97.7053,"RA_OF_ASC_NODE":270.4346,"ARG_OF_PERICENTER":81.0232,"MEAN_ANOMALY":279.1534,"EPHEMERIS_TYPE":0,"NORAD_CAT_ID":62710,"ELEMENT_SET_NO":999,"REV_AT_EPOCH":8100,"BSTAR":0.000059723,"MEAN_MOTION_DOT":0.00000562,"MEAN_MOTION_DDOT":0}]}
